OBJECT_NAME,OBJECT_ID,EPOCH,MEAN_MOTION,ECCENTRICITY,INCLINATION,RA_OF_ASC_NODE,ARG_OF_PERICENTER,MEAN_ANOMALY,EPHEMERIS_TYPE,CLASSIFICATION_TYPE,NORAD_CAT_ID,ELEMENT_SET_NO,REV_AT_EPOCH,BSTAR,MEAN_MOTION_DOT,MEAN_MOTION_DDOT
SES-2,2011-049A,2026-06-30T18:47:34.427904,1.00271363,.00031083,0.0931,93.3450,4.9824,15.4110,0,U,37809,999,5410,0,-.185E-5,0
ARABSAT-5C,2011-049B,2026-06-30T19:18:15.032160,1.00271274,.00033628,0.0507,18.4734,99.4315,110.5056,0,U,37810,999,5417,0,.134E-5,0
QUETZSAT 1,2011-054A,2026-06-30T18:50:26.653344,1.00271199,.00029884,0.0109,10.1241,94.5518,19.7908,0,U,37826,999,5001,0,-.231E-5,0
INTELSAT 18 (IS-18),2011-056A,2026-06-30T18:21:14.452704,1.00269536,.00021004,0.0231,22.8266,83.3379,267.9762,0,U,37834,999,5394,0,0,0
VIASAT-1,2011-059A,2026-06-30T14:28:22.927296,1.00269274,.00026379,0.0247,21.9876,78.2303,280.4466,0,U,37843,999,4745,0,0,0
ASIASAT 7,2011-069A,2026-06-30T19:42:36.673920,1.00272939,.0001644,0.0263,289.6094,144.3881,246.0566,0,U,37933,999,4499,0,-.323E-5,0
BEIDOU-2 IGSO-5,2011-073A,2026-06-24T15:46:07.226112,1.00272136,.01142233,47.6633,271.4526,222.0346,107.5350,0,U,37948,999,5320,0,-.196E-5,0
LUCH-5A,2011-074B,2026-06-30T15:12:59.798016,1.00272761,.00027228,8.7862,73.6128,38.7683,201.5027,0,U,37951,999,5318,0,-.46E-6,0
SES-4,2012-007A,2026-06-30T19:06:13.752864,1.00269561,.00024289,0.0225,41.9713,55.7201,85.7192,0,U,38087,999,5236,0,-.158E-5,0
BEIDOU-2 G5,2012-008A,2026-06-30T17:46:37.919424,1.00277198,.00084186,3.6065,69.6198,275.7883,258.8500,0,U,38091,999,5250,0,.63E-6,0
MUOS-1,2012-009A,2026-06-30T14:20:28.337280,1.00272736,.00576148,5.5028,47.1400,2.5910,344.0724,0,U,38093,999,5257,0,-.121E-5,0
YAHSAT 1B,2012-016A,2026-06-29T22:35:38.807232,1.00269200,.00036045,0.0900,89.0120,35.6808,179.8291,0,U,38245,999,4573,0,.138E-5,0
VINASAT-2,2012-023B,2026-06-30T11:16:50.615328,1.00271649,.00025706,0.0138,14.9404,88.1195,116.5383,0,U,38332,999,4679,0,-.318E-5,0
NIMIQ 6,2012-026A,2026-06-30T13:38:37.822848,1.00272949,.00029499,0.0446,276.6925,183.9515,291.5417,0,U,38342,999,5054,0,-.163E-5,0
ZHONGXING-2A,2012-028A,2026-06-30T20:01:38.718624,1.00272182,.00019113,1.4888,83.7246,26.2702,207.5476,0,U,38352,999,5143,0,-.283E-5,0
INTELSAT 19 (IS-19),2012-030A,2026-06-30T18:17:14.836128,1.00271515,.00034305,0.0120,7.2299,102.5357,249.3719,0,U,38356,999,5058,0,-.46E-6,0
ECHOSTAR 17,2012-035A,2026-06-29T15:42:28.527840,1.00271136,.00020115,0.0189,24.4677,74.9260,306.8573,0,U,38551,999,5118,0,-.64E-6,0
METEOSAT-10 (MSG-3),2012-035B,2026-06-30T19:12:38.071296,1.00269307,.00016746,4.7021,60.9556,13.8848,132.3208,0,U,38552,999,5099,0,.1E-7,0
SES-5,2012-036A,2026-06-30T19:14:00.439008,1.00272258,.00022856,0.0479,316.3488,143.2223,112.7779,0,U,38652,999,4459,0,.44E-6,0
HYLAS 2,2012-043B,2026-06-30T12:01:13.785600,1.00270955,.00028329,2.4600,80.9169,36.5619,268.8206,0,U,38741,999,5090,0,-.249E-5,0
